[
  {
    "OBJECT_NAME": "BIROS",
    "OBJECT_ID": "2016-040F",
    "EPOCH": "2025-06-07T13:15:40.862592",
    "MEAN_MOTION": 15.62037917,
    "ECCENTRICITY": 0.0006232,
    "INCLINATION": 97.0865,
    "RA_OF_ASC_NODE": 187.449,
    "ARG_OF_PERICENTER": 160.5479,
    "MEAN_ANOMALY": 199.6019,
    "EPHEMERIS_TYPE": 0,
    "CLASSIFICATION_TYPE": "U",
    "NORAD_CAT_ID": 41604,
    "ELEMENT_SET_NO": 999,
    "REV_AT_EPOCH": 49918,
    "BSTAR": 0.00031996,
    "MEAN_MOTION_DOT": 0.00027906,
    "MEAN_MOTION_DDOT": 0
  },
  {
    "OBJECT_NAME": "GAOFEN-3",
    "OBJECT_ID": "2016-049A",
    "EPOCH": "2025-06-07T20:38:05.468064",
    "MEAN_MOTION": 14.42155862,
    "ECCENTRICITY": 0.0001324,
    "INCLINATION": 98.4026,
    "RA_OF_ASC_NODE": 167.2473,
    "ARG_OF_PERICENTER": 112.181,
    "MEAN_ANOMALY": 247.952,
    "EPHEMERIS_TYPE": 0,
    "CLASSIFICATION_TYPE": "U",
    "NORAD_CAT_ID": 41727,
    "ELEMENT_SET_NO": 999,
    "REV_AT_EPOCH": 46468,
    "BSTAR": 2.4415e-05,
    "MEAN_MOTION_DOT": 3.7e-07,
    "MEAN_MOTION_DDOT": 0
  },
  {
    "OBJECT_NAME": "SKYSAT-C4",
    "OBJECT_ID": "2016-058B",
    "EPOCH": "2025-06-07T19:50:05.548704",
    "MEAN_MOTION": 15.36684718,
    "ECCENTRICITY": 0.0002848,
    "INCLINATION": 96.9559,
    "RA_OF_ASC_NODE": 193.7048,
    "ARG_OF_PERICENTER": 138.1864,
    "MEAN_ANOMALY": 221.9599,
    "EPHEMERIS_TYPE": 0,
    "CLASSIFICATION_TYPE": "U",
    "NORAD_CAT_ID": 41771,
    "ELEMENT_SET_NO": 999,
    "REV_AT_EPOCH": 48777,
    "BSTAR": 0.00026971,
    "MEAN_MOTION_DOT": 9.591e-05,
    "MEAN_MOTION_DDOT": 0
  },
  {
    "OBJECT_NAME": "SKYSAT-C5",
    "OBJECT_ID": "2016-058C",
    "EPOCH": "2025-06-07T13:10:47.240832",
    "MEAN_MOTION": 15.3608109,
    "ECCENTRICITY": 0.000657,
    "INCLINATION": 97.1009,
    "RA_OF_ASC_NODE": 209.1948,
    "ARG_OF_PERICENTER": 68.2605,
    "MEAN_ANOMALY": 291.9338,
    "EPHEMERIS_TYPE": 0,
    "CLASSIFICATION_TYPE": "U",
    "NORAD_CAT_ID": 41772,
    "ELEMENT_SET_NO": 999,
    "REV_AT_EPOCH": 48627,
    "BSTAR": 0.00025187,
    "MEAN_MOTION_DOT": 8.781e-05,
    "MEAN_MOTION_DDOT": 0
  },
  {
    "OBJECT_NAME": "SKYSAT-C2",
    "OBJECT_ID": "2016-058D",
    "EPOCH": "2025-06-07T19:53:52.096416",
    "MEAN_MOTION": 15.32765306,
    "ECCENTRICITY": 0.0002833,
    "INCLINATION": 97.0536,
    "RA_OF_ASC_NODE": 191.7272,
    "ARG_OF_PERICENTER": 351.0499,
    "MEAN_ANOMALY": 9.0693,
    "EPHEMERIS_TYPE": 0,
    "CLASSIFICATION_TYPE": "U",
    "NORAD_CAT_ID": 41773,
    "ELEMENT_SET_NO": 999,
    "REV_AT_EPOCH": 48754,
    "BSTAR": 0.00025158,
    "MEAN_MOTION_DOT": 7.889e-05,
    "MEAN_MOTION_DDOT": 0
  },
  {
    "OBJECT_NAME": "SKYSAT-C3",
    "OBJECT_ID": "2016-058E",
    "EPOCH": "2025-06-07T14:15:05.369760",
    "MEAN_MOTION": 15.37717809,
    "ECCENTRICITY": 0.0002282,
    "INCLINATION": 96.9535,
    "RA_OF_ASC_NODE": 201.7819,
    "ARG_OF_PERICENTER": 118.6449,
    "MEAN_ANOMALY": 241.5027,
    "EPHEMERIS_TYPE": 0,
    "CLASSIFICATION_TYPE": "U",
    "NORAD_CAT_ID": 41774,
    "ELEMENT_SET_NO": 999,
    "REV_AT_EPOCH": 48829,
    "BSTAR": 0.00025655,
    "MEAN_MOTION_DOT": 9.429e-05,
    "MEAN_MOTION_DDOT": 0
  },
  {
    "OBJECT_NAME": "ALSAT 1B",
    "OBJECT_ID": "2016-059C",
    "EPOCH": "2025-06-07T20:14:27.335616",
    "MEAN_MOTION": 14.71832681,
    "ECCENTRICITY": 0.0009224,
    "INCLINATION": 97.7882,
    "RA_OF_ASC_NODE": 178.6269,
    "ARG_OF_PERICENTER": 358.9035,
    "MEAN_ANOMALY": 1.2151,
    "EPHEMERIS_TYPE": 0,
    "CLASSIFICATION_TYPE": "U",
    "NORAD_CAT_ID": 41785,
    "ELEMENT_SET_NO": 999,
    "REV_AT_EPOCH": 46550,
    "BSTAR": 6.6775e-05,
    "MEAN_MOTION_DOT": 3.7e-06,
    "MEAN_MOTION_DDOT": 0
  },
  {
    "OBJECT_NAME": "PATHFINDER 1",
    "OBJECT_ID": "2016-059E",
    "EPOCH": "2025-06-07T21:23:08.881728",
    "MEAN_MOTION": 14.66925825,
    "ECCENTRICITY": 0.0027852,
    "INCLINATION": 97.8126,
    "RA_OF_ASC_NODE": 170.3895,
    "ARG_OF_PERICENTER": 321.8071,
    "MEAN_ANOMALY": 38.116,
    "EPHEMERIS_TYPE": 0,
    "CLASSIFICATION_TYPE": "U",
    "NORAD_CAT_ID": 41787,
    "ELEMENT_SET_NO": 999,
    "REV_AT_EPOCH": 46482,
    "BSTAR": 0.00012077,
    "MEAN_MOTION_DOT": 6.33e-06,
    "MEAN_MOTION_DDOT": 0
  },
  {
    "OBJECT_NAME": "SCATSAT 1",
    "OBJECT_ID": "2016-059H",
    "EPOCH": "2025-06-07T20:30:07.124832",
    "MEAN_MOTION": 14.78214259,
    "ECCENTRICITY": 0.0056229,
    "INCLINATION": 98.1694,
    "RA_OF_ASC_NODE": 212.9752,
    "ARG_OF_PERICENTER": 14.2464,
    "MEAN_ANOMALY": 346.0316,
    "EPHEMERIS_TYPE": 0,
    "CLASSIFICATION_TYPE": "U",
    "NORAD_CAT_ID": 41790,
    "ELEMENT_SET_NO": 999,
    "REV_AT_EPOCH": 46157,
    "BSTAR": 0.00016454,
    "MEAN_MOTION_DOT": 1.167e-05,
    "MEAN_MOTION_DDOT": 0
  },
  {
    "OBJECT_NAME": "GOKTURK 1A",
    "OBJECT_ID": "2016-073A",
    "EPOCH": "2025-06-07T20:54:09.582336",
    "MEAN_MOTION": 14.62812303,
    "ECCENTRICITY": 0.0001367,
    "INCLINATION": 98.1146,
    "RA_OF_ASC_NODE": 53.927,
    "ARG_OF_PERICENTER": 85.4316,
    "MEAN_ANOMALY": 274.7042,
    "EPHEMERIS_TYPE": 0,
    "CLASSIFICATION_TYPE": "U",
    "NORAD_CAT_ID": 41875,
    "ELEMENT_SET_NO": 999,
    "REV_AT_EPOCH": 45410,
    "BSTAR": 7.514e-05,
    "MEAN_MOTION_DOT": 3.37e-06,
    "MEAN_MOTION_DDOT": 0
  },
  {
    "OBJECT_NAME": "RESOURCESAT-2A",
    "OBJECT_ID": "2016-074A",
    "EPOCH": "2025-06-07T20:19:46.207776",
    "MEAN_MOTION": 14.21742232,
    "ECCENTRICITY": 0.0001882,
    "INCLINATION": 98.6576,
    "RA_OF_ASC_NODE": 230.3677,
    "ARG_OF_PERICENTER": 74.9063,
    "MEAN_ANOMALY": 285.2323,
    "EPHEMERIS_TYPE": 0,
    "CLASSIFICATION_TYPE": "U",
    "NORAD_CAT_ID": 41877,
    "ELEMENT_SET_NO": 999,
    "REV_AT_EPOCH": 44112,
    "BSTAR": 7.5771e-05,
    "MEAN_MOTION_DOT": 1.23e-06,
    "MEAN_MOTION_DDOT": 0
  },
  {
    "OBJECT_NAME": "CARTOSAT-2D",
    "OBJECT_ID": "2017-008A",
    "EPOCH": "2025-06-07T20:30:11.716992",
    "MEAN_MOTION": 15.19282482,
    "ECCENTRICITY": 0.0006619,
    "INCLINATION": 97.462,
    "RA_OF_ASC_NODE": 218.8739,
    "ARG_OF_PERICENTER": 110.6694,
    "MEAN_ANOMALY": 249.5251,
    "EPHEMERIS_TYPE": 0,
    "CLASSIFICATION_TYPE": "U",
    "NORAD_CAT_ID": 41948,
    "ELEMENT_SET_NO": 999,
    "REV_AT_EPOCH": 46074,
    "BSTAR": 0.00021873,
    "MEAN_MOTION_DOT": 4.548e-05,
    "MEAN_MOTION_DDOT": 0
  },
  {
    "OBJECT_NAME": "SENTINEL-2B",
    "OBJECT_ID": "2017-013A",
    "EPOCH": "2025-06-07T19:14:44.956608",
    "MEAN_MOTION": 14.30822715,
    "ECCENTRICITY": 0.000108,
    "INCLINATION": 98.5698,
    "RA_OF_ASC_NODE": 233.9581,
    "ARG_OF_PERICENTER": 94.9947,
    "MEAN_ANOMALY": 265.1359,
    "EPHEMERIS_TYPE": 0,
    "CLASSIFICATION_TYPE": "U",
    "NORAD_CAT_ID": 42063,
    "ELEMENT_SET_NO": 999,
    "REV_AT_EPOCH": 43111,
    "BSTAR": 5.9854e-05,
    "MEAN_MOTION_DOT": 1.13e-06,
    "MEAN_MOTION_DDOT": 0
  },
  {
    "OBJECT_NAME": "ZHUHAI-1 02 (CAS-4B)",
    "OBJECT_ID": "2017-034B",
    "EPOCH": "2025-06-07T20:53:20.443200",
    "MEAN_MOTION": 15.6312567,
    "ECCENTRICITY": 0.0021641,
    "INCLINATION": 43.0074,
    "RA_OF_ASC_NODE": 332.0709,
    "ARG_OF_PERICENTER": 279.2996,
    "MEAN_ANOMALY": 80.5422,
    "EPHEMERIS_TYPE": 0,
    "CLASSIFICATION_TYPE": "U",
    "NORAD_CAT_ID": 42759,
    "ELEMENT_SET_NO": 999,
    "REV_AT_EPOCH": 44233,
    "BSTAR": 0.00061705,
    "MEAN_MOTION_DOT": 0.00058562,
    "MEAN_MOTION_DDOT": 0
  }
]