41604,BIROS,2016,92.19,130.0,+,97.09,Active,1,LEO,India,Germany,Government,Earth Observation,PSLV,1 41604U 16040F   25158.55255628  .00027906  00000+0  31996-3 0  9999,2 41604  97.0865 187.4490 0006232 160.5479 199.6019 15.62037917499187,15.62037917,0.0006232,LEO
41727,GAOFEN-3,2016,99.85,1000.0,+,98.4,Active,1,LEO,PRC,China,Government,Earth Observation,Long March,1 41727U 16049A   25158.85978551  .00000037  00000+0  24415-4 0  9999,2 41727  98.4026 167.2473 0001324 112.1810 247.9520 14.42155862464681,14.42155862,0.0001324,LEO
41771,SKYSAT-C4,2016,93.71,110.0,+,96.96,Active,1,LEO,French Guiana,USA,Commercial,Earth Observation,Vega,1 41771U 16058B   25158.82645311  .00009591  00000+0  26971-3 0  9992,2 41771  96.9559 193.7048 0002848 138.1864 221.9599 15.36684718487779,15.36684718,0.0002848,LEO
41772,SKYSAT-C5,2016,93.75,110.0,+,97.1,Active,1,LEO,French Guiana,USA,Commercial,Earth Observation,Vega,1 41772U 16058C   25158.54915788  .00008781  00000+0  25187-3 0  9998,2 41772  97.1009 209.1948 0006570  68.2605 291.9338 15.36081090486272,15.3608109,0.000657,LEO
41773,SKYSAT-C2,2016,93.95,110.0,+,97.05,Active,1,LEO,French Guiana,USA,Commercial,Earth Observation,Vega,1 41773U 16058D   25158.82907519  .00007889  00000+0  25158-3 0  9999,2 41773  97.0536 191.7272 0002833 351.0499   9.0693 15.32765306487543,15.32765306,0.0002833,LEO
41774,SKYSAT-C3,2016,93.65,110.0,+,96.95,Active,1,LEO,French Guiana,USA,Commercial,Earth Observation,Vega,1 41774U 16058E   25158.59381215  .00009429  00000+0  25655-3 0  9997,2 41774  96.9535 201.7819 0002282 118.6449 241.5027 15.37717809488297,15.37717809,0.0002282,LEO
41785,ALSAT 1B,2016,97.84,103.0,+,97.79,Active,1,LEO,India,Algeria,Government,Earth Observation,PSLV,1 41785U 16059C   25158.84337194  .00000370  00000+0  66775-4 0  9990,2 41785  97.7882 178.6269 0009224 358.9035   1.2151 14.71832681465508,14.71832681,0.0009224,LEO
41787,PATHFINDER 1,2016,98.16,44.0,+,97.81,Active,1,LEO,India,USA,Commercial,Earth Observation,PSLV,1 41787U 16059E   25158.89107502  .00000633  00000+0  12077-3 0  9992,2 41787  97.8126 170.3895 0027852 321.8071  38.1160 14.66925825464822,14.66925825,0.0027852,LEO
41790,SCATSAT 1,2016,97.41,371.0,+,98.17,Active,1,LEO,India,India,Government,Earth Observation,PSLV,1 41790U 16059H   25158.85424913  .00001167  00000+0  16454-3 0  9996,2 41790  98.1694 212.9752 0056229  14.2464 346.0316 14.78214259461572,14.78214259,0.0056229,LEO
41875,GOKTURK 1A,2016,98.44,1060.0,+,98.11,Active,1,LEO,French Guiana,Turkey,Military,Earth Observation,Vega,1 41875U 16073A   25158.87094424  .00000337  00000+0  75140-4 0  9994,2 41875  98.1146  53.9270 0001367  85.4316 274.7042 14.62812303454106,14.62812303,0.0001367,LEO
41877,RESOURCESAT-2A,2016,101.28,1235.0,+,98.66,Active,1,LEO,India,India,Government,Earth Observation,PSLV,1 41877U 16074A   25158.84706259  .00000123  00000+0  75771-4 0  9993,2 41877  98.6576 230.3677 0001882  74.9063 285.2323 14.21742232441121,14.21742232,0.0001882,LEO
41948,CARTOSAT-2D,2017,94.78,714.0,+,97.46,Active,1,LEO,India,India,Government,Earth Observation,PSLV,1 41948U 17008A   25158.85430228  .00004548  00000+0  21873-3 0  9999,2 41948  97.4620 218.8739 0006619 110.6694 249.5251 15.19282482460744,15.19282482,0.0006619,LEO
42063,SENTINEL-2B,2017,100.64,1130.0,+,98.57,Active,1,LEO,French Guiana,ESA,Government,Earth Observation,Vega,1 42063U 17013A   25158.80190922  .00000113  00000+0  59854-4 0  9998,2 42063  98.5698 233.9581 0001080  94.9947 265.1359 14.30822715431118,14.30822715,0.000108,LEO
42759,ZHUHAI-1 02 (CAS-4B),2017,92.13,55.0,+,43.01,Active,1,LEO,PRC,China,Commercial,Earth Observation,Long March,1 42759U 17034B   25158.87037550  .00058562  00000+0  61705-3 0  9995,2 42759  43.0074 332.0709 0021641 279.2996  80.5422 15.63125670442332,15.6312567,0.0021641,LEO
